      2.10          N: GNSS NAV DATA                        RINEX VERSION / TYPE
fic2rin                                 11/22/2021 00:17:34 PGM / RUN BY / DATE
                                                            END OF HEADER
20 21 11 21  6  0  0.0 5.180183798075e-04-2.273736754432e-13 0.000000000000e+00
    5.300000000000e+01-4.618750000000e+01 4.676623371564e-09 2.198832485650e+00
   -2.276152372360e-06 5.481315543875e-03 1.067295670509e-05 5.153695363998e+03
    2.160000000000e+04-3.725290298462e-08 4.768691720408e-01 1.452863216400e-07
    9.407396352276e-01 1.648125000000e+02 3.036017410700e+00-7.935687696103e-09
    3.260850113210e-10 1.000000000000e+00 2.185000000000e+03 0.000000000000e+00
    2.400000000000e+00 0.000000000000e+00-8.381903171539e-09 5.300000000000e+01
    1.440000000000e+04 4.000000000000e+00
24 21 11 21  6  0  0.0 2.690716646612e-04 3.524291969370e-12 0.000000000000e+00
    7.200000000000e+01-5.250000000000e+00 5.085211819484e-09 1.390892960732e+00
   -2.626329660416e-07 1.202289946377e-02 9.007751941681e-06 5.153704605103e+03
    2.160000000000e+04-1.806765794754e-07 2.648505179660e+00 6.891787052155e-08
    9.348301118150e-01 1.940625000000e+02 7.814261915946e-01-8.290702483894e-09
   -6.343121359322e-10 1.000000000000e+00 2.185000000000e+03 0.000000000000e+00
    2.400000000000e+00 0.000000000000e+00 2.328306436539e-09 7.200000000000e+01
    1.440000000000e+04 4.000000000000e+00
23 21 11 21  6  0  0.0 3.054691478610e-05-4.320099833421e-12 0.000000000000e+00
    8.700000000000e+01-2.846875000000e+01 4.240533778110e-09 5.284296846346e-01
   -1.659616827965e-06 1.888133701868e-03 9.622424840927e-06 5.153689418793e+03
    2.160000000000e+04 4.842877388000e-08 6.012789819574e-01-2.048909664154e-08
    9.664062608255e-01 1.978125000000e+02 2.795826925802e+00-7.749965674321e-09
    3.382283742837e-10 1.000000000000e+00 2.185000000000e+03 0.000000000000e+00
    2.400000000000e+00 0.000000000000e+00-8.381903171539e-09 5.990000000000e+02
    1.440000000000e+04 4.000000000000e+00
18 21 11 21  6  0  0.0 2.923002466559e-04-6.025402399246e-12 0.000000000000e+00
    6.200000000000e+01-1.174375000000e+02 4.218747156324e-09 1.283671901356e+00
   -6.021931767464e-06 2.077965880744e-03 6.590038537979e-06 5.153644668579e+03
    2.160000000000e+04 3.539025783539e-08-3.976975143607e-01-5.587935447693e-08
    9.702093650687e-01 2.552812500000e+02 3.059135360901e+00-7.958902948826e-09
   -2.335811581642e-10 1.000000000000e+00 2.185000000000e+03 0.000000000000e+00
    2.400000000000e+00 0.000000000000e+00-8.381903171539e-09 3.180000000000e+02
    1.440000000000e+04 4.000000000000e+00
28 21 11 21  6  0  0.0 4.586493596435e-04-7.617018127348e-12 0.000000000000e+00
    6.300000000000e+01 1.537500000000e+02 4.000166622996e-09-2.516007641772e+00
    7.929280400276e-06 1.731897424906e-02 7.236376404762e-06 5.153719934464e+03
    2.160000000000e+04 1.490116119385e-07-2.419733579365e+00 1.844018697739e-07
    9.707327298632e-01 2.399375000000e+02-1.311750347827e+00-7.552457447310e-09
    2.582250418238e-10 1.000000000000e+00 2.185000000000e+03 0.000000000000e+00
    3.400000000000e+00 6.300000000000e+01-1.117587089539e-08 6.300000000000e+01
    1.440000000000e+04 4.000000000000e+00
 2 21 11 21  8  0  0.0-6.428519263864e-04-1.477928890381e-12 0.000000000000e+00
    7.200000000000e+01-1.482187500000e+02 4.275178078327e-09 2.310160438838e+00
   -7.586553692818e-06 2.051922434475e-02 5.103647708893e-06 5.153804071426e+03
    2.880000000000e+04 2.663582563400e-07-4.942836128051e-01-9.685754776001e-08
    9.648214553377e-01 2.785625000000e+02-1.478782318408e+00-7.704963799812e-09
   -3.375140588153e-10 1.000000000000e+00 2.185000000000e+03 0.000000000000e+00
    2.400000000000e+00 0.000000000000e+00-1.769512891769e-08 7.200000000000e+01
    2.160000000000e+04 4.000000000000e+00
 1 21 11 21  8  0  0.0 5.049682222307e-04-1.045918907039e-11 0.000000000000e+00
    8.300000000000e+01-1.223125000000e+02 3.820159124961e-09 2.109624221014e+00
   -6.429851055145e-06 1.111546903849e-02 7.063150405884e-06 5.153677396774e+03
    2.880000000000e+04-1.769512891769e-07-4.068423864356e-01-2.328306436539e-07
    9.864407571484e-01 2.578125000000e+02 8.858336279434e-01-7.628889202428e-09
   -1.264338379054e-10 1.000000000000e+00 2.185000000000e+03 0.000000000000e+00
    2.400000000000e+00 0.000000000000e+00 5.122274160385e-09 8.300000000000e+01
    2.160000000000e+04 4.000000000000e+00
 3 21 11 21  8  0  0.0-1.905672252178e-05-1.000444171950e-11 0.000000000000e+00
    1.220000000000e+02-2.231250000000e+01 4.166244969397e-09 9.365238622751e-01
   -1.212581992149e-06 3.883462282829e-03 1.003220677376e-05 5.153732734680e+03
    2.880000000000e+04-7.078051567078e-08 6.284472344470e-01 1.676380634308e-08
    9.715089849173e-01 1.907500000000e+02 1.000915503531e+00-7.711035481293e-09
    4.007309777680e-10 1.000000000000e+00 2.185000000000e+03 0.000000000000e+00
    2.400000000000e+00 0.000000000000e+00 1.862645149231e-09 1.220000000000e+02
    2.160000000000e+04 4.000000000000e+00
 8 21 11 21  8  0  0.0-4.501873627305e-05-1.477928890381e-12 0.000000000000e+00
    2.000000000000e+01 1.890625000000e+01 4.654122434309e-09-1.840356712004e+00
    7.972121238708e-07 6.780287600122e-03 7.804483175278e-07 5.153680419922e+03
    2.880000000000e+04 1.862645149231e-08-1.485096119232e+00-1.098960638046e-07
    9.653844769156e-01 3.688750000000e+02 5.506778261704e-02-8.347133405897e-09
    1.692927660089e-10 1.000000000000e+00 2.185000000000e+03 0.000000000000e+00
    2.400000000000e+00 0.000000000000e+00 5.122274160385e-09 2.000000000000e+01
    2.160000000000e+04 4.000000000000e+00
 5 21 11 21  8  0  0.0-6.179092451930e-05-1.250555214938e-12 0.000000000000e+00
    7.400000000000e+01-3.600000000000e+01 4.341609416888e-09-1.546177855668e+00
   -1.810491085052e-06 5.994607112370e-03 1.016259193420e-05 5.153622243881e+03
    2.880000000000e+04 1.192092895508e-07 5.892101213894e-01 5.774199962616e-08
    9.585249754641e-01 1.814062500000e+02 1.016586973957e+00-7.723536001990e-09
    4.582333729736e-10 1.000000000000e+00 2.185000000000e+03 0.000000000000e+00
    2.400000000000e+00 0.000000000000e+00-1.117587089539e-08 7.400000000000e+01
    2.160000000000e+04 4.000000000000e+00
 6 21 11 21  8  0  0.0 1.231171190739e-04 9.322320693173e-12 0.000000000000e+00
    7.100000000000e+01-1.358750000000e+02 3.881233097509e-09 2.506068254499e+00
   -6.856396794319e-06 2.409501234069e-03 6.865710020065e-06 5.153623380661e+03
    2.880000000000e+04 8.754432201385e-08-4.150968607361e-01 5.587935447693e-09
    9.858392739914e-01 2.587187500000e+02-1.040218431810e+00-7.767823561031e-09
   -2.303667385565e-10 1.000000000000e+00 2.185000000000e+03 0.000000000000e+00
    3.400000000000e+00 0.000000000000e+00 4.190951585770e-09 7.100000000000e+01
    2.160000000000e+04 4.000000000000e+00
 7 21 11 21  8  0  0.0 2.809646539390e-04 5.229594535194e-12 0.000000000000e+00
    1.720000000000e+02 4.968750000000e+00 4.643407702283e-09 1.466627373888e+00
    2.942979335785e-07 1.532658131327e-02 9.655952453613e-06 5.153722114563e+03
    2.880000000000e+04-2.905726432800e-07 2.729680909298e+00 7.264316082001e-08
    9.514412745024e-01 1.929687500000e+02-2.301363240948e+00-8.043906489564e-09
   -6.218116152354e-10 1.000000000000e+00 2.185000000000e+03 0.000000000000e+00
    2.400000000000e+00 0.000000000000e+00-1.117587089539e-08 1.720000000000e+02
    2.160000000000e+04 4.000000000000e+00
 4 21 11 21  8  0  0.0-2.013240009546e-04 1.023181539495e-12 0.000000000000e+00
    1.750000000000e+02 1.843750000000e+00 4.879846122321e-09-2.331040235560e+00
    4.284083843231e-08 1.529229572043e-03 5.176290869713e-06 5.153665609360e+03
    2.880000000000e+04-1.117587089539e-08 1.709787743408e+00-3.725290298462e-09
    9.603473939580e-01 2.802187500000e+02-3.129338388636e+00-8.064621638148e-09
    1.250052069686e-11 1.000000000000e+00 2.185000000000e+03 0.000000000000e+00
    2.400000000000e+00 0.000000000000e+00-4.190951585770e-09 4.310000000000e+02
    2.160000000000e+04 4.000000000000e+00
10 21 11 21  8  0  0.0-2.509420737624e-04-8.526512829121e-12 0.000000000000e+00
    7.400000000000e+01-2.703125000000e+01 4.214818421248e-09 1.435127039145e-01
   -1.423060894012e-06 7.210058625787e-03 9.423121809959e-06 5.153678344727e+03
    2.880000000000e+04 4.097819328308e-08 6.256317710688e-01 5.774199962616e-08
    9.713548942931e-01 2.021562500000e+02-2.574277686233e+00-7.810682489134e-09
    3.350139546759e-10 1.000000000000e+00 2.185000000000e+03 0.000000000000e+00
    2.400000000000e+00 0.000000000000e+00 2.328306436539e-09 7.400000000000e+01
    2.160000000000e+04 4.000000000000e+00
 9 21 11 21  8  0  0.0-3.615352325141e-04 3.410605131648e-13 0.000000000000e+00
    5.500000000000e+01 3.062500000000e+00 5.091283500965e-09-1.525033820831e+00
    1.285225152969e-07 2.354478463531e-03 5.122274160385e-06 5.153659812927e+03
    2.880000000000e+04-3.166496753693e-08 1.657500874433e+00 5.029141902924e-08
    9.532849506589e-01 2.767812500000e+02 1.829848716270e+00-8.195341368863e-09
    3.178703834345e-11 1.000000000000e+00 2.185000000000e+03 0.000000000000e+00
    2.400000000000e+00 0.000000000000e+00 1.396983861923e-09 5.500000000000e+01
    2.160000000000e+04 4.000000000000e+00
21 21 11 21  8  0  0.0 1.516281627119e-04 1.136868377216e-12 0.000000000000e+00
    4.000000000000e+00-1.141875000000e+02 4.525902807733e-09-1.808561063839e+00
   -5.429610610008e-06 2.424560929649e-02 6.731599569321e-06 5.153616399765e+03
    2.880000000000e+04-4.302710294724e-07-4.953570347974e-01 4.805624485016e-07
    9.590354651166e-01 2.497812500000e+02-1.056230294014e+00-8.038191965817e-09
   -1.564350875779e-10 1.000000000000e+00 2.185000000000e+03 0.000000000000e+00
    2.400000000000e+00 0.000000000000e+00-1.024454832077e-08 4.000000000000e+00
    2.160000000000e+04 4.000000000000e+00
